LEDSAT                  
1 49069U 21073D   24238.15728376  .00029553  00000+0  10691-2 0  9991
2 49069  97.4313 308.9516 0017920  43.6503 316.6150 15.28227262166977
XW-3 (CAS-9)            
1 50466U 21131B   24238.55317934  .00001418  00000+0  46563-3 0  9995
2 50466  98.5264 323.3012 0003064 280.1655  79.9188 14.39856436139982
GREENCUBE               
1 53106U 22080B   24228.11242500 -.00000003  00000+0  00000+0 0  9992
2 53106  70.1424 172.0499 0007747  94.1050 266.0495  6.42557430 49057
CAS-5A (FO-118)         
1 54684U 22167C   24238.60497965  .00051492  00000+0  14677-2 0  9997
2 54684  97.6125  25.3601 0009950 259.6529 100.3592 15.35858046 94937
STRATOSAT-TK 1 (RS52S)  
1 57167U 23091B   24238.56446400  .00024495  00000+0  12935-2 0  9994
2 57167  97.6049 291.5537 0013902 235.3029 124.6894 15.15425060 64052
UMKA 1 (RS40S)          
1 57172U 23091G   24238.53555543  .00009217  00000+0  58895-3 0  9997
2 57172  97.6059 289.9089 0015113 241.1158 118.8555 15.08767603 63946
CUBESX-HSE 3 (RS42S)    
1 57178U 23091N   24238.55164081  .00013705  00000+0  82972-3 0  9998
2 57178  97.6094 290.5491 0015781 234.4584 125.5175 15.10625605 63979
MONITOR-4 (RS57S)       
1 57182U 23091S   24238.56334423  .00013030  00000+0  80213-3 0  9990
2 57182  97.6078 290.3154 0016237 236.2790 123.6892 15.10024587 63962
MONITOR-2 (RS39S)       
1 57184U 23091U   24238.56407051  .00009194  00000+0  58875-3 0  9995
2 57184  97.6085 290.3442 0013022 229.8411 130.1678 15.08713856 63965
SVYATOBOR 1 (RS60S)     
1 57187U 23091X   24238.57454271  .00012084  00000+0  73237-3 0  9996
2 57187  97.6082 290.9515 0012564 225.5340 134.4863 15.10656647 64002
VIZARD-METEO (RS38S)    
1 57189U 23091Z   24238.52565460  .00014311  00000+0  82561-3 0  9991
2 57189  97.6077 291.4357 0011497 221.1025 138.9340 15.12409457 64033
NANOZOND 1 (RS49S)      
1 57190U 23091AA  24238.52799371  .00021335  00000+0  11178-2 0  9992
2 57190  97.6049 292.2112 0009978 223.1421 136.9030 15.15774321 64093
POLYTECH-UNIVERSE 3 (R*)
1 57191U 23091AB  24238.57074974  .00008665  00000+0  55466-3 0  9993
2 57191  97.6047 290.0006 0018046 248.8438 111.0862 15.08681779 63955
UTMN 2 (RS27S)          
1 57203U 23091AP  24238.60780708  .00013221  00000+0  77642-3 0  9994
2 57203  97.6080 291.3236 0011749 221.3009 138.7333 15.11784452 64033
ARCCUBE 1 (RS25S)       
1 57205U 23091AR  24238.57768636  .00026563  00000+0  13273-2 0  9990
2 57205  97.6016 292.4794 0010086 224.3263 135.7164 15.17393516 64125
KUZGTU 1 (RS47S)        
1 57217U 23091AV  24238.56766800  .00013380  00000+0  81451-3 0  9990
2 57217  97.6063 290.3911 0015826 236.1349 123.8375 15.10429431 63974
HADES-D (SO-121)        
1 58567U 23174CY  24238.18565790  .00117225  00000+0  27857-2 0  9996
2 58567  97.4457 314.5733 0008281 325.5879  34.4830 15.41186042 44364
OOV-CUBE (TUBSAT-30)    
1 60240U 24128F   24238.50181467  .00005469  00000+0  49156-3 0  9991
2 60240  61.9999   0.4915 0012542 309.6938  50.3043 14.96763897  6986
CUTE-1 (CO-55)          
1 27844U 03031E   24238.47416664  .00000886  00000+0  40943-3 0  9993
2 27844  98.6792 244.5469 0008646 308.5294  51.5109 14.23404593 97649
CUBESAT XI-IV (CO-57)   
1 27848U 03031J   24238.43596580  .00000743  00000+0  35047-3 0  9990
2 27848  98.6822 244.7143 0008838 326.6986  33.3635 14.22825495 97380
CUBESAT XI-V            
1 28895U 05043F   24238.63014527  .00004512  00000+0  78921-3 0  9992
2 28895  98.2108  14.6122 0016179 136.0654 224.1840 14.68277897  4641
CUTE-1.7+APD II (CO-65) 
1 32785U 08021C   24238.52004668  .00010581  00000+0  90025-3 0  9999
2 32785  97.7605 203.3371 0013742  95.8840 264.3949 14.97927968885922
AAUSAT-II               
1 32788U 08021F   24238.38991411  .00038882  00000+0  16940-2 0  9994
2 32788  97.5988 219.0443 0000638 310.2548  49.8632 15.22090513888834
CANX-2                  
1 32790U 08021H   24238.38950417  .00008956  00000+0  79600-3 0  9990
2 32790  97.7737 201.8976 0014381 103.2907 256.9919 14.96268167885636
SEEDS II (CO-66)        
1 32791U 08021J   24238.42571981  .00016331  00000+0  11257-2 0  9990
2 32791  97.6954 209.3133 0007813  83.2569 276.9547 15.05884293886936
SWISSCUBE               
1 35932U 09051B   24238.62378674  .00002772  00000+0  59457-3 0  9999
2 35932  98.4601 123.3051 0008592 101.2196 258.9969 14.59456828792683
BEESAT-1                
1 35933U 09051C   24238.23089639  .00002425  00000+0  52512-3 0  9997
2 35933  98.4529 123.7217 0006822 111.9272 248.2652 14.59138077792693
ITUPSAT1                
1 35935U 09051E   24238.22685799  .00002203  00000+0  48900-3 0  9997
2 35935  98.4627 123.4647 0008986 119.5336 240.6759 14.58066133792322
TISAT 1                 
1 36799U 10035E   24238.56654757  .00015727  00000+0  11282-2 0  9994
2 36799  98.0794 131.0612 0004754  31.2205 328.9301 15.04422069767481
AEROCUBE 4.5A           
1 38767U 12048K   24238.32299593  .00021479  00000+0  10468-2 0  9990
2 38767  64.6580  91.4964 0109947 354.5889   5.4034 15.13121706270919
AEROCUBE 4.5B           
1 38768U 12048L   24238.62082165  .00048701  00000+0  14151-2 0  9999
2 38768  64.6548  10.1034 0087370 341.0485  18.7400 15.31408919272031
STRAND-1                
1 39090U 13009E   24238.04266244  .00000908  00000+0  32556-3 0  9991
2 39090  98.3825  64.4404 0009788  51.7906 308.4160 14.36212025602129
BRITE-AUSTRIA           
1 39091U 13009F   24238.45056759  .00000582  00000+0  21538-3 0  9991
2 39091  98.3871  64.1122 0011338  56.7509 303.4762 14.35900988602206
NEE-01 PEGASO           
1 39151U 13018B   24238.56238361  .00006755  00000+0  76619-3 0  9999
2 39151  98.0425 356.4115 0014917 169.9676 190.1840 14.86598122612277
ESTCUBE 1               
1 39161U 13021C   24238.11932285  .00004368  00000+0  62656-3 0  9995
2 39161  97.8229 302.4888 0008912  16.1624 343.9869 14.76980515607261
POPACS 1                
1 39268U 13055D   24238.28184763  .00045954  00000+0  75182-3 0  9992
2 39268  80.9780  71.5613 0383431 229.4632 127.2614 14.98708030570864
POPACS 2                
1 39269U 13055E   24238.51257511  .00023293  00000+0  52208-3 0  9997
2 39269  81.0035 163.9674 0541229 110.9765 255.0208 14.59499368565709
POPACS 3                
1 39270U 13055F   24238.21062135  .00010723  00000+0  29361-3 0  9990
2 39270  81.0076 217.2809 0618576 260.2633  92.8204 14.39020988542885
ZACUBE-1 (TSHEPISOSAT)  
1 39417U 13066B   24238.43584208  .00009921  00000+0  10007-2 0  9993
2 39417  97.7389 192.9147 0047147 292.2439  67.3782 14.90468544581895
WNISAT-1                
1 39423U 13066H   24238.38955560  .00003075  00000+0  58900-3 0  9996
2 39423  97.6707  67.1172 0169819 151.5695 209.4900 14.55585015570509
TRITON-1                
1 39427U 13066M   24238.53966970  .00004971  00000+0  68945-3 0  9990
2 39427  97.8362 154.3160 0100220 217.8516 141.5618 14.74941278576435
DELFI-N3XT              
1 39428U 13066N   24238.34885554  .00009735  00000+0  12007-2 0  9998
2 39428  97.8327 154.9130 0096852 223.2466 136.1114 14.79764050576314
GOMX-1                  
1 39430U 13066Q   24238.53921216  .00005033  00000+0  82586-3 0  9995
2 39430  97.7217 108.7127 0139705  32.8526 328.1267 14.64766559573019
CUBEBUG-2 (LO-74)       
1 39440U 13066AA  24238.57006487  .00009342  00000+0  10708-2 0  9997
2 39440  97.8145 180.7875 0070204  48.5856 312.1363 14.84335418578629
NEE-02 KRYSAOR          
1 39441U 13066AB  24238.31441486  .00006343  00000+0  79033-3 0  9997
2 39441  97.8233 176.1340 0075357  71.7064 289.2329 14.80776151578161
FUNCUBE-1 (AO-73)       
1 39444U 13066AE  24238.38861906  .00011493  00000+0  10703-2 0  9990
2 39444  97.7246 196.1848 0044094 270.5841  89.0327 14.93695978580436
UWE-3                   
1 39446U 13066AG  24238.58252705  .00009889  00000+0  10700-2 0  9998
2 39446  97.7846 186.8919 0058714 353.5521   6.4933 14.87195987579016
BRITE-CA1 (TORONTO)     
1 40020U 14033L   24238.60593591  .00003261  00000+0  52738-3 0  9993
2 40020  97.8868  13.3340 0081717 229.9562 129.4456 14.69778370545060
DUCHIFAT-1              
1 40021U 14033M   24238.54713010  .00020864  00000+0  12840-2 0  9994
2 40021  98.0953 226.0810 0011130 211.7748 148.2810 15.09995552554589
NANOSATC-BR1            
1 40024U 14033Q   24238.38903631  .00017576  00000+0  12262-2 0  9993
2 40024  98.0699 213.4776 0003193 314.4054  45.6910 15.05445791553650
QB50P1                  
1 40025U 14033R   24238.37415983  .00013595  00000+0  10577-2 0  9995
2 40025  98.0502 201.4850 0011655 309.6676  50.3518 15.01340111553251
QB50P2                  
1 40032U 14033Y   24238.60440101  .00011835  00000+0  95711-3 0  9998
2 40032  98.0078 192.9617 0007339 271.1254  88.9128 14.99922467553071
PERSEUS-M2              
1 40037U 14033AD  24238.36492328  .00004951  00000+0  50567-3 0  9995
2 40037  97.9258 169.4208 0012017 334.9423  25.1210 14.91015631552133
PERSEUS-M1              
1 40039U 14033AF  24238.53418548  .00004752  00000+0  48795-3 0  9997
2 40039  97.9046 165.4460 0011816 333.2810  26.7797 14.90822070552010
POLYITAN-1              
1 40042U 14033AJ  24238.43634695  .00017888  00000+0  12703-2 0  9996
2 40042  98.0760 205.6759 0009571 253.9028 106.1143 15.04745142553245
TIGRISAT                
1 40043U 14033AK  24238.40750467  .00005381  00000+0  70547-3 0  9996
2 40043  97.7037  38.1988 0055768  78.3460 282.4004 14.79623445547698
AEROCUBE 6A             
1 40045U 14033AM  24238.43822502  .00010708  00000+0  12361-2 0  9999
2 40045  97.6757  49.2535 0049912  54.8521 305.7356 14.84885863548061
AEROCUBE 6B             
1 40046U 14033AN  24238.43258754  .00010749  00000+0  12154-2 0  9997
2 40046  97.6725  48.0159 0048467  49.9971 310.5484 14.85783026548126
